{"type": "FeatureCollection", "features": [ {"type": "Feature", "properties": {"norad_id": 34433, "name": "COSMOS 2251 DEB", "group": "cosmos-2251-debris", "lat": -45.27656291628841, "lon": -27.93115935557745, "alt_km": 774.7567502901156, "timestamp": "2025-12-23T20:42:37.470356+00:00", "meta": {"OBJECT_NAME": "COSMOS 2251 DEB", "OBJECT_ID": "1993-036SA", "EPOCH": "2025-12-22T16:26:02.164992", "MEAN_MOTION": 14.12893248, "ECCENTRICITY": 0.01527957, "INCLINATION": 74.0095, "RA_OF_ASC_NODE": 137.3252, "ARG_OF_PERICENTER": 273.2963, "MEAN_ANOMALY": 85.0708, "EPHEMERIS_TYPE": 0, "CLASSIFICATION_TYPE": "U", "NORAD_CAT_ID": 34433, "ELEMENT_SET_NO": 999, "REV_AT_EPOCH": 86090, "BSTAR": 0.00096242284, "MEAN_MOTION_DOT": 1.975e-05, "MEAN_MOTION_DDOT": 0}, "tle": {"line1": "1 34433U 93036SA  25356.68474728  .00001975  00000+0  96242-3 0  9992", "line2": "2 34433  74.0095 137.3252 0152795 273.2963  85.0708 14.12893248860901"}}, "geometry": {"type": "Point", "coordinates": [-27.93115935557745, -45.27656291628841]}}, {"type": "Feature", "properties": {"norad_id": 34434, "name": "COSMOS 2251 DEB", "group": "cosmos-2251-debris", "lat": -71.7231161293012, "lon": -68.69805752294765, "alt_km": 1113.5134274056636, "timestamp": "2025-12-23T20:42:37.470366+00:00", "meta": {"OBJECT_NAME": "COSMOS 2251 DEB", "OBJECT_ID": "1993-036SB", "EPOCH": "2025-12-23T04:26:23.045280", "MEAN_MOTION": 13.89866364, "ECCENTRICITY": 0.02737366, "INCLINATION": 74.0622, "RA_OF_ASC_NODE": 352.3594, "ARG_OF_PERICENTER": 127.1459, "MEAN_ANOMALY": 359.6788, "EPHEMERIS_TYPE": 0, "CLASSIFICATION_TYPE": "U", "NORAD_CAT_ID": 34434, "ELEMENT_SET_NO": 999, "REV_AT_EPOCH": 84111, "BSTAR": 0.0016355711, "MEAN_MOTION_DOT": 2.7e-05, "MEAN_MOTION_DDOT": 0}, "tle": {"line1": "1 34434U 93036SB  25357.18498895  .00002700  00000+0  16356-2 0  9994", "line2": "2 34434  74.0622 352.3594 0273736 127.1459 359.6788 13.89866364841114"}}, "geometry": {"type": "Point", "coordinates": [-68.69805752294765, -71.7231161293012]}}, {"type": "Feature", "properties": {"norad_id": 34446, "name": "COSMOS 2251 DEB", "group": "cosmos-2251-debris", "lat": -33.07537820773598, "lon": 25.68204763475437, "alt_km": 765.753055599539, "timestamp": "2025-12-23T20:42:37.470376+00:00", "meta": {"OBJECT_NAME": "COSMOS 2251 DEB", "OBJECT_ID": "1993-036SP", "EPOCH": "2025-12-23T04:18:19.444608", "MEAN_MOTION": 14.49363759, "ECCENTRICITY": 0.00506388, "INCLINATION": 74.0415, "RA_OF_ASC_NODE": 37.704, "ARG_OF_PERICENTER": 173.2295, "MEAN_ANOMALY": 186.9561, "EPHEMERIS_TYPE": 0, "CLASSIFICATION_TYPE": "U", "NORAD_CAT_ID": 34446, "ELEMENT_SET_NO": 999, "REV_AT_EPOCH": 88845, "BSTAR": 0.00011175749, "MEAN_MOTION_DOT": 4.06e-06, "MEAN_MOTION_DDOT": 0}, "tle": {"line1": "1 34446U 93036SP  25357.17939172  .00000406  00000+0  11176-3 0  9991", "line2": "2 34446  74.0415  37.7040 0050638 173.2295 186.9561 14.49363759888456"}}, "geometry": {"type": "Point", "coordinates": [25.68204763475437, -33.07537820773598]}}, {"type": "Feature", "properties": {"norad_id": 34449, "name": "COSMOS 2251 DEB", "group": "cosmos-2251-debris", "lat": 32.76795543997889, "lon": -142.50410328949755, "alt_km": 571.0972581791366, "timestamp": "2025-12-23T20:42:37.470386+00:00", "meta": {"OBJECT_NAME": "COSMOS 2251 DEB", "OBJECT_ID": "1993-036SS", "EPOCH": "2025-12-23T04:16:41.219904", "MEAN_MOTION": 14.95406741, "ECCENTRICITY": 0.00227012, "INCLINATION": 74.0323, "RA_OF_ASC_NODE": 49.4976, "ARG_OF_PERICENTER": 85.859, "MEAN_ANOMALY": 335.1297, "EPHEMERIS_TYPE": 0, "CLASSIFICATION_TYPE": "U", "NORAD_CAT_ID": 34449, "ELEMENT_SET_NO": 999, "REV_AT_EPOCH": 88849, "BSTAR": 0.0025913641, "MEAN_MOTION_DOT": 0.00028864, "MEAN_MOTION_DDOT": 0}, "tle": {"line1": "1 34449U 93036SS  25357.17825486  .00028864  00000+0  25914-2 0  9998", "line2": "2 34449  74.0323  49.4976 0022701  85.8590 335.1297 14.95406741888499"}}, "geometry": {"type": "Point", "coordinates": [-142.50410328949755, 32.76795543997889]}}, {"type": "Feature", "properties": {"norad_id": 34451, "name": "COSMOS 2251 DEB", "group": "cosmos-2251-debris", "lat": 33.4457978183293, "lon": -125.46873480397373, "alt_km": 569.5038526450926, "timestamp": "2025-12-23T20:42:37.470396+00:00", "meta": {"OBJECT_NAME": "COSMOS 2251 DEB", "OBJECT_ID": "1993-036SU", "EPOCH": "2025-12-22T05:33:05.101056", "MEAN_MOTION": 14.96073953, "ECCENTRICITY": 0.00238449, "INCLINATION": 74.0466, "RA_OF_ASC_NODE": 68.7153, "ARG_OF_PERICENTER": 82.7849, "MEAN_ANOMALY": 277.6045, "EPHEMERIS_TYPE": 0, "CLASSIFICATION_TYPE": "U", "NORAD_CAT_ID": 34451, "ELEMENT_SET_NO": 999, "REV_AT_EPOCH": 88777, "BSTAR": 0.0029135722, "MEAN_MOTION_DOT": 0.00033055, "MEAN_MOTION_DDOT": 0}, "tle": {"line1": "1 34451U 93036SU  25356.23130904  .00033055  00000+0  29136-2 0  9999", "line2": "2 34451  74.0466  68.7153 0023844  82.7849 277.6045 14.96073953887770"}}, "geometry": {"type": "Point", "coordinates": [-125.46873480397373, 33.4457978183293]}}, {"type": "Feature", "properties": {"norad_id": 34452, "name": "COSMOS 2251 DEB", "group": "cosmos-2251-debris", "lat": 27.104889602381682, "lon": -28.63430831092084, "alt_km": 522.3332851829718, "timestamp": "2025-12-23T20:42:37.470407+00:00", "meta": {"OBJECT_NAME": "COSMOS 2251 DEB", "OBJECT_ID": "1993-036SV", "EPOCH": "2025-12-23T04:56:13.319808", "MEAN_MOTION": 15.11952627, "ECCENTRICITY": 0.00645322, "INCLINATION": 74.032, "RA_OF_ASC_NODE": 161.1537, "ARG_OF_PERICENTER": 235.158, "MEAN_ANOMALY": 301.4093, "EPHEMERIS_TYPE": 0, "CLASSIFICATION_TYPE": "U", "NORAD_CAT_ID": 34452, "ELEMENT_SET_NO": 999, "REV_AT_EPOCH": 90820, "BSTAR": 0.00092340094, "MEAN_MOTION_DOT": 0.0001665, "MEAN_MOTION_DDOT": 0}, "tle": {"line1": "1 34452U 93036SV  25357.20570972  .00016650  00000+0  92340-3 0  9991", "line2": "2 34452  74.0320 161.1537 0064532 235.1580 301.4093 15.11952627908202"}}, "geometry": {"type": "Point", "coordinates": [-28.63430831092084, 27.104889602381682]}}, {"type": "Feature", "properties": {"norad_id": 34454, "name": "COSMOS 2251 DEB", "group": "cosmos-2251-debris", "lat": 32.70256974688488, "lon": 66.57859922361011, "alt_km": 785.4418373395347, "timestamp": "2025-12-23T20:42:37.470417+00:00", "meta": {"OBJECT_NAME": "COSMOS 2251 DEB", "OBJECT_ID": "1993-036SX", "EPOCH": "2025-12-23T03:20:48.956064", "MEAN_MOTION": 14.38824144, "ECCENTRICITY": 0.00359204, "INCLINATION": 74.0586, "RA_OF_ASC_NODE": 258.485, "ARG_OF_PERICENTER": 318.9511, "MEAN_ANOMALY": 40.8941, "EPHEMERIS_TYPE": 0, "CLASSIFICATION_TYPE": "U", "NORAD_CAT_ID": 34454, "ELEMENT_SET_NO": 999, "REV_AT_EPOCH": 88217, "BSTAR": 0.0002135841, "MEAN_MOTION_DOT": 6.35e-06, "MEAN_MOTION_DDOT": 0}, "tle": {"line1": "1 34454U 93036SX  25357.13945551  .00000635  00000+0  21358-3 0  9991", "line2": "2 34454  74.0586 258.4850 0035920 318.9511  40.8941 14.38824144882172"}}, "geometry": {"type": "Point", "coordinates": [66.57859922361011, 32.70256974688488]}}, {"type": "Feature", "properties": {"norad_id": 34459, "name": "COSMOS 2251 DEB", "group": "cosmos-2251-debris", "lat": 50.47880453762478, "lon": -104.931946356728, "alt_km": 935.4724084155487, "timestamp": "2025-12-23T20:42:37.470426+00:00", "meta": {"OBJECT_NAME": "COSMOS 2251 DEB", "OBJECT_ID": "1993-036TC", "EPOCH": "2025-12-22T01:35:59.550144", "MEAN_MOTION": 14.00513623, "ECCENTRICITY": 0.01921145, "INCLINATION": 74.0786, "RA_OF_ASC_NODE": 237.9285, "ARG_OF_PERICENTER": 305.6081, "MEAN_ANOMALY": 52.7285, "EPHEMERIS_TYPE": 0, "CLASSIFICATION_TYPE": "U", "NORAD_CAT_ID": 34459, "ELEMENT_SET_NO": 999, "REV_AT_EPOCH": 85842, "BSTAR": 0.00037140359, "MEAN_MOTION_DOT": 6.22e-06, "MEAN_MOTION_DDOT": 0}, "tle": {"line1": "1 34459U 93036TC  25356.06666146  .00000622  00000+0  37140-3 0  9999", "line2": "2 34459  74.0786 237.9285 0192114 305.6081  52.7285 14.00513623858427"}}, "geometry": {"type": "Point", "coordinates": [-104.931946356728, 50.47880453762478]}}, {"type": "Feature", "properties": {"norad_id": 34464, "name": "COSMOS 2251 DEB", "group": "cosmos-2251-debris", "lat": -60.333867926004295, "lon": -95.1177770200694, "alt_km": 477.07340362981904, "timestamp": "2025-12-23T20:42:37.470437+00:00", "meta": {"OBJECT_NAME": "COSMOS 2251 DEB", "OBJECT_ID": "1993-036TH", "EPOCH": "2025-12-23T03:56:05.254080", "MEAN_MOTION": 15.28477233, "ECCENTRICITY": 0.00143439, "INCLINATION": 73.9891, "RA_OF_ASC_NODE": 56.0969, "ARG_OF_PERICENTER": 238.9119, "MEAN_ANOMALY": 121.0675, "EPHEMERIS_TYPE": 0, "CLASSIFICATION_TYPE": "U", "NORAD_CAT_ID": 34464, "ELEMENT_SET_NO": 999, "REV_AT_EPOCH": 89999, "BSTAR": 0.002873803, "MEAN_MOTION_DOT": 0.00080744, "MEAN_MOTION_DDOT": 0}, "tle": {"line1": "1 34464U 93036TH  25357.16394970  .00080744  00000+0  28738-2 0  9995", "line2": "2 34464  73.9891  56.0969 0014343 238.9119 121.0675 15.28477233899991"}}, "geometry": {"type": "Point", "coordinates": [-95.1177770200694, -60.333867926004295]}}, {"type": "Feature", "properties": {"norad_id": 34468, "name": "COSMOS 2251 DEB", "group": "cosmos-2251-debris", "lat": 38.18378847657271, "lon": -96.66392357749793, "alt_km": 738.3017627739628, "timestamp": "2025-12-23T20:42:37.470447+00:00", "meta": {"OBJECT_NAME": "COSMOS 2251 DEB", "OBJECT_ID": "1993-036TM", "EPOCH": "2025-12-22T00:56:13.410240", "MEAN_MOTION": 14.47648693, "ECCENTRICITY": 0.00763002, "INCLINATION": 74.013, "RA_OF_ASC_NODE": 99.7823, "ARG_OF_PERICENTER": 242.8301, "MEAN_ANOMALY": 116.5066, "EPHEMERIS_TYPE": 0, "CLASSIFICATION_TYPE": "U", "NORAD_CAT_ID": 34468, "ELEMENT_SET_NO": 999, "REV_AT_EPOCH": 88596, "BSTAR": 0.00032520607, "MEAN_MOTION_DOT": 1.214e-05, "MEAN_MOTION_DDOT": 0}, "tle": {"line1": "1 34468U 93036TM  25356.03904410  .00001214  00000+0  32521-3 0  9991", "line2": "2 34468  74.0130  99.7823 0076300 242.8301 116.5066 14.47648693885969"}}, "geometry": {"type": "Point", "coordinates": [-96.66392357749793, 38.18378847657271]}}]}